NORAD_CAT_ID,OBJECT_NAME,OBJECT_TYPE,EPOCH,MEAN_MOTION,ECCENTRICITY,INCLINATION,RA_OF_ASC_NODE,ARG_OF_PERICENTER,MEAN_ANOMALY,BSTAR,MEAN_MOTION_DOT,MEAN_MOTION_DDOT,TLE_LINE0,TLE_LINE1,TLE_LINE2,SEMIMAJOR_AXIS,PERIOD,APOGEE,PERIGEE,DECAYED
51741.0,STARLINK-3520,PAYLOAD,2022-04-18 14:00:01,15.53277378,0.0002015,53.2173,223.3722,31.0508,111.2852,-0.012156,-0.00712942,0.0,0 STARLINK-3520,1 51741U 22016AD  22108.58334491 -.00712942  00000-0 -12156-1 0  9992,2 51741  53.2173 223.3722 0002015  31.0508 111.2852 15.53277378  3705,6785.302,92.707,408.534,405.799,0.0
51741.0,STARLINK-3520,PAYLOAD,2022-04-18 22:00:00,15.52768753,0.0001679,53.2172,221.7696,42.4395,164.5758,-0.012426,-0.0071512,0.0,0 STARLINK-3520,1 51741U 22016AD  22108.91667824 -.00715120  00000-0 -12426-1 0  9999,2 51741  53.2172 221.7696 0001679  42.4395 164.5758 15.52768753  3708,6786.783,92.738,409.788,407.509,0.0
51741.0,STARLINK-3520,PAYLOAD,2022-04-19 14:00:01,15.51748742,0.0001848,53.2173,218.5697,30.8828,303.6526,-0.01289,-0.00714949,0.0,0 STARLINK-3520,1 51741U 22016AD  22109.58334491 -.00714949  00000-0 -12890-1 0  9997,2 51741  53.2173 218.5697 0001848  30.8828 303.6526 15.51748742 10223,6789.757,92.799,412.877,410.367,0.0
51741.0,STARLINK-3520,PAYLOAD,2022-04-20 14:00:01,15.50217478,0.0002068,53.2173,213.7782,31.3805,129.8402,-0.013559,-0.0072125,0.0,0 STARLINK-3520,1 51741U 22016AD  22110.58334491 -.00721250  00000-0 -13559-1 0  9995,2 51741  53.2173 213.7782 0002068  31.3805 129.8402 15.50217478  3703,6794.228,92.89,417.49800000000016,414.68800000000016,0.0
51741.0,STARLINK-3520,PAYLOAD,2022-04-20 22:00:00,15.49708846,0.000171,53.2173,212.1827,41.4957,180.7278,-0.013857,-0.00723624,0.0,0 STARLINK-3520,1 51741U 22016AD  22110.91667824 -.00723624  00000-0 -13857-1 0  9999,2 51741  53.2173 212.1827 0001710  41.4957 180.7278 15.49708846 10436,6795.714,92.921,418.741,416.417,0.0
51741.0,STARLINK-3520,PAYLOAD,2022-04-21 14:00:01,15.48688967,0.000205,53.2176,208.9978,24.6629,317.7271,-0.014365,-0.00723616,0.0,0 STARLINK-3520,1 51741U 22016AD  22111.58334491 -.00723616  00000-0 -14365-1 0  9990,2 51741  53.2176 208.9978 0002050  24.6629 317.7271 15.48688967  3714,6798.696999999999,92.982,421.956,419.169,0.0
51741.0,STARLINK-3520,PAYLOAD,2022-04-21 22:00:00,15.481779800000002,0.0001483,53.2174,207.4058,39.9061,1.6492,-0.014583,-0.00721564,0.0,0 STARLINK-3520,1 51741U 22016AD  22111.91667824 -.00721564  00000-0 -14583-1 0  9998,2 51741  53.2174 207.4058 0001483  39.9061   1.6492 15.48177980  3681,6800.193,93.013,423.067,421.05,0.0
51741.0,STARLINK-3520,PAYLOAD,2022-04-22 06:00:00,15.47667149,0.0001547,53.2176,205.8149,43.5426,56.5648,-0.014798,-0.00719384,0.0,0 STARLINK-3520,1 51741U 22016AD  22112.25001157 -.00719384  00000-0 -14798-1 0  9992,2 51741  53.2176 205.8149 0001547  43.5426  56.5648 15.47667149 10649,6801.689,93.043,424.607,422.502,0.0
51741.0,STARLINK-3520,PAYLOAD,2022-04-22 14:00:01,15.471578699999998,0.000197,53.2173,204.2283,34.2638,123.7811,-0.015099,-0.00721016,0.0,0 STARLINK-3520,1 51741U 22016AD  22112.58334491 -.00721016  00000-0 -15099-1 0  9998,2 51741  53.2173 204.2283 0001970  34.2638 123.7811 15.47157870  3703,6803.182,93.074,426.387,423.707,0.0
51741.0,STARLINK-3520,PAYLOAD,2022-04-23 06:00:02,15.46137414,0.0001515,53.2175,201.0526,50.9967,221.1529,-0.015595,-0.00718848,0.0,0 STARLINK-3520,1 51741U 22016AD  22113.25002315 -.00718848  00000-0 -15595-1 0  9990,2 51741  53.2175 201.0526 0001515  50.9967 221.1529 15.46137414 10792,6806.175,93.135,429.071,427.009,0.0
51741.0,STARLINK-3520,PAYLOAD,2022-04-23 14:00:01,15.45488427,0.00017,53.2163,199.4714,37.6794,290.5827,-0.01175,-0.00534877,0.0,0 STARLINK-3520,1 51741U 22016AD  22113.58334491 -.00534877  00000-0 -11750-1 0  9996,2 51741  53.2163 199.4714 0001700  37.6794 290.5827 15.45488427  3654,6808.08,93.174,431.103,428.788,0.0
51741.0,STARLINK-3520,PAYLOAD,2022-04-24 06:00:00,15.44606935,0.0001587,53.2174,196.3016,40.505,38.0433,-0.01643,-0.00718496,0.0,0 STARLINK-3520,1 51741U 22016AD  22114.25001157 -.00718496  00000-0 -16430-1 0  9992,2 51741  53.2174 196.3016 0001587  40.5050  38.0433 15.44606935 10941,6810.67,93.228,433.616,431.454,0.0
51741.0,STARLINK-3520,PAYLOAD,2022-04-24 14:00:01,15.44097614,0.0002007,53.2174,194.7224,31.545,101.264,-0.016753,-0.00719931,0.0,0 STARLINK-3520,1 51741U 22016AD  22114.58334491 -.00719931  00000-0 -16753-1 0  9991,2 51741  53.2174 194.7224 0002007  31.5450 101.2640 15.44097614  3680,6812.168000000002,93.258,435.4,432.666,0.0
51741.0,STARLINK-3520,PAYLOAD,2022-04-25 06:00:00,15.43077832,0.0001813,53.2175,191.5614,40.1509,199.3447,-0.0173229999999999,-0.00719083,0.0,0 STARLINK-3520,1 51741U 22016AD  22115.25001157 -.00719083  00000-0 -17323-1 0  9998,2 51741  53.2175 191.5614 0001813  40.1509 199.3447 15.43077832 11102,6815.169,93.32,438.269,435.798,0.0
51741.0,STARLINK-3520,PAYLOAD,2022-04-25 14:00:01,15.42567816,0.0001862,53.2176,189.9857,34.7963,257.122,-0.017643,-0.00719791,0.0,0 STARLINK-3520,1 51741U 22016AD  22115.58334491 -.00719791  00000-0 -17643-1 0  9995,2 51741  53.2176 189.9857 0001862  34.7963 257.1220 15.42567816  3692,6816.670999999999,93.351,439.805,437.267,0.0
51741.0,STARLINK-3520,PAYLOAD,2022-04-25 22:00:00,15.4205908,0.0001557,53.2175,188.4077,39.9999,303.73,-0.018018,-0.00722335,0.0,0 STARLINK-3520,1 51741U 22016AD  22115.91667824 -.00722335  00000-0 -18018-1 0  9996,2 51741  53.2175 188.4077 0001557  39.9999 303.7300 15.42059080  3692,6818.17,93.382,441.097,438.974,0.0
51741.0,STARLINK-3520,PAYLOAD,2022-04-26 06:00:00,15.41548099,0.0001818,53.2177,186.8323,30.6648,4.2635,-0.018261,-0.00719859,0.0,0 STARLINK-3520,1 51741U 22016AD  22116.25001157 -.00719859  00000-0 -18261-1 0  9992,2 51741  53.2177 186.8323 0001818  30.6648   4.2635 15.41548099 11256,6819.677,93.413,442.782,440.302,0.0
51741.0,STARLINK-3520,PAYLOAD,2022-04-26 14:00:01,15.41036898,0.0002096,53.2176,185.2601,26.9582,58.6193,-0.018541,-0.0071863999999999,0.0,0 STARLINK-3520,1 51741U 22016AD  22116.58335648 -.00718640  00000-0 -18541-1 0  9991,2 51741  53.2176 185.2601 0002096  26.9582  58.6193 15.41036898  3680,6821.185,93.444,444.48,441.62,0.0
51741.0,STARLINK-3520,PAYLOAD,2022-04-26 22:00:00,15.40527219,0.0002064,53.2175,183.6857,29.2295,106.2568,-0.01885,-0.00718319,0.0,0 STARLINK-3520,1 51741U 22016AD  22116.91667824 -.00718319  00000-0 -18850-1 0  9998,2 51741  53.2175 183.6857 0002064  29.2295 106.2568 15.40527219  3661,6822.689,93.474,445.962,443.146,0.0
51741.0,STARLINK-3520,PAYLOAD,2022-04-27 06:00:00,15.4001685,0.00019,53.2177,182.1141,37.1777,147.6686,-0.019149,-0.00717476,0.0,0 STARLINK-3520,1 51741U 22016AD  22117.25001157 -.00717476  00000-0 -19149-1 0  9992,2 51741  53.2177 182.1141 0001900  37.1777 147.6686 15.40016850 11410,6824.196999999999,93.505,447.358,444.765,0.0
51741.0,STARLINK-3520,PAYLOAD,2022-04-27 14:00:01,15.39424616,0.0001818,53.2166,180.5466,45.4187,188.2799,-0.016305,-0.0059983,0.0,0 STARLINK-3520,1 51741U 22016AD  22117.58335648 -.00599830  00000-0 -16305-1 0  9996,2 51741  53.2166 180.5466 0001818  45.4187 188.2799 15.39424616  3659,6825.946999999999,93.541,449.05300000000005,446.571,0.0
51741.0,STARLINK-3520,PAYLOAD,2022-04-28 06:00:00,15.38400657,0.0001595,53.2164,177.4074,47.5522,281.7399,-0.016654,-0.00592865,0.0,0 STARLINK-3520,1 51741U 22016AD  22118.25001157 -.00592865  00000-0 -16654-1 0  9994,2 51741  53.2164 177.4074 0001595  47.5522 281.7399 15.38400657 11567,6828.975,93.604,451.929,449.751,0.0
51741.0,STARLINK-3520,PAYLOAD,2022-04-28 14:00:01,15.37976495,0.0001665999999999,53.2175,175.8416,36.7053,339.4513,-0.020468,-0.00717015,0.0,0 STARLINK-3520,1 51741U 22016AD  22118.58334491 -.00717015  00000-0 -20468-1 0  9994,2 51741  53.2175 175.8416 0001666  36.7053 339.4513 15.37976495 11611,6830.231,93.63,453.234,450.958,0.0
51741.0,STARLINK-3520,PAYLOAD,2022-04-29 14:00:01,15.36442983,0.0001738,53.2174,171.1486,41.4649,111.742,-0.021314,-0.00710781,0.0,0 STARLINK-3520,1 51741U 22016AD  22119.58334491 -.00710781  00000-0 -21314-1 0  9999,2 51741  53.2174 171.1486 0001738  41.4649 111.7420 15.36442983 11774,6834.775,93.723,457.828,455.452,0.0
51741.0,STARLINK-3520,PAYLOAD,2022-04-29 22:00:00,15.35936374,0.0001771999999999,53.2174,169.5848,41.4016,156.2624,-0.021831,-0.00715787,0.0,0 STARLINK-3520,1 51741U 22016AD  22119.91667824 -.00715787  00000-0 -21831-1 0  9990,2 51741  53.2174 169.5848 0001772  41.4016 156.2624 15.35936374  3685,6836.278,93.754,459.354,456.931,0.0
51741.0,STARLINK-3520,PAYLOAD,2022-04-30 12:00:00,15.35044121,0.0001975,53.2174,166.8562,36.9133,147.0756,-0.022484,-0.00716303,0.0,0 STARLINK-3520,1 51741U 22016AD  22120.50001157 -.00716303  00000-0 -22484-1 0  9998,2 51741  53.2174 166.8562 0001975  36.9133 147.0756 15.35044121 11911,6838.926,93.808,462.142,459.441,0.0
51741.0,STARLINK-3520,PAYLOAD,2022-04-30 14:00:01,15.34914868,0.0001785,53.2174,166.4665,37.7952,246.9446,-0.022463,-0.00712915,0.0,0 STARLINK-3520,1 51741U 22016AD  22120.58334491 -.00712915  00000-0 -22463-1 0  9998,2 51741  53.2174 166.4665 0001785  37.7952 246.9446 15.34914868  3658,6839.31,93.816,462.396,459.955,0.0
51741.0,STARLINK-3520,PAYLOAD,2022-04-30 22:00:00,15.34342304,0.000178,53.2167,164.9079,31.7694,295.6205,-0.019913,-0.00626589,0.0,0 STARLINK-3520,1 51741U 22016AD  22120.91667824 -.00626589  00000-0 -19913-1 0  9991,2 51741  53.2167 164.9079 0001780  31.7694 295.6205 15.34342304  3636,6841.012,93.851,464.094,461.659,0.0
51741.0,STARLINK-3520,PAYLOAD,2022-05-01 14:00:01,15.33385748,0.0001797,53.2173,161.7953,31.871,18.8874,-0.023637,-0.00714314,0.0,0 STARLINK-3520,1 51741U 22016AD  22121.58334491 -.00714314  00000-0 -23637-1 0  9998,2 51741  53.2173 161.7953 0001797  31.8710  18.8874 15.33385748 12070,6843.856,93.91,466.951,464.492,0.0
